0 WINDS (KIZUNA)
1 32500U 08007A   13281.68498767 -.00000270  00000-0  10000-3 0  9865
2 32500 000.0017 152.3012 0002640 037.3146 217.4753 01.00271225 20652
0 WINDS (KIZUNA)
1 32500U 08007A   13282.87435887 -.00000273  00000-0  10000-3 0  9875
2 32500 000.0032 132.8402 0002595 054.8487 288.7451 01.00270847 20662
0 WINDS (KIZUNA)
1 32500U 08007A   13285.67502330 -.00000282  00000-0  10000-3 0  9885
2 32500 000.0229 098.5442 0002602 087.6659 221.2192 01.00270752 20698
0 WINDS (KIZUNA)
1 32500U 08007A   13288.83064997 -.00000283  00000-0  10000-3 0  9890
2 32500 000.0453 054.6776 0002690 140.8664 271.0132 01.00270761 20726
0 WINDS (KIZUNA)
1 32500U 08007A   13290.08510870  .00000000  00000-0  10000-3 0  9904
2 32500 000.0082 128.4941 0003133 052.2662 018.5954 01.00264071 20739
0 WINDS (KIZUNA)
1 32500U 08007A   13292.80924693 -.00000275  00000-0  10000-3 0  9903
2 32500 000.0386 049.5263 0002667 158.9889 254.2564 01.00271760 20764
0 WINDS (KIZUNA)
1 32500U 08007A   13294.90784780 -.00000272  00000-0  10000-3 0  9915
2 32500 000.0437 050.2131 0002708 155.8679 294.2597 01.00271770 20786
